GLOBALSTAR M068 [-]     
1 32266U 07048D   23269.84218554 -.00000078  00000+0  14645-3 0  9995
2 32266  51.9891  60.6115 0001104 142.2797   5.2203 12.62766755738334
GLOBALSTAR M079 [+]     
1 37188U 10054A   23270.20785013 -.00000096  00000+0  45293-4 0  9999
2 37188  52.0022 254.5016 0000465  50.8131 322.1152 12.62268053597705
GLOBALSTAR M074 [+]     
1 37189U 10054B   23270.17009265 -.00000106  00000+0 -10135-4 0  9994
2 37189  52.0001 254.0362 0000433  77.3500   4.1314 12.62270069597696
GLOBALSTAR M076 [+]     
1 37190U 10054C   23269.42282094 -.00000105  00000+0 -61804-5 0  9994
2 37190  52.0021 256.4248 0000974  61.4428 103.1088 12.62261318597248
GLOBALSTAR M077 [+]     
1 37191U 10054D   23270.02465642 -.00000108  00000+0 -22425-4 0  9993
2 37191  52.0061 211.2684 0000562  73.4964   5.7728 12.62263980598434
GLOBALSTAR M075 [+]     
1 37192U 10054E   23269.42301309 -.00000069  00000+0  19556-3 0  9990
2 37192  51.9947 299.0341 0000378  62.9172  41.7985 12.62261673596473
GLOBALSTAR M073 [+]     
1 37193U 10054F   23270.11546065 -.00000110  00000+0 -36302-4 0  9996
2 37193  52.0048 210.2616 0000581  63.8183 309.2165 12.62267677598447
GLOBALSTAR M083 [+]     
1 37739U 11033A   23269.90572928 -.00000097  00000+0  37780-4 0  9996
2 37739  51.9847 160.4909 0000473  63.2587  17.4970 12.62269306567383
GLOBALSTAR M088 [+]     
1 37740U 11033B   23269.89791647 -.00000097  00000+0  39743-4 0  9998
2 37740  51.9733  66.5336 0000579  74.8320  89.8287 12.62265836562922
GLOBALSTAR M091 [+]     
1 37741U 11033C   23269.83465192 -.00000095  00000+0  46306-4 0  9997
2 37741  52.0020  29.1568 0000462  77.9949  98.3719 12.62266509563708
GLOBALSTAR M085 [+]     
1 37742U 11033D   23269.40427065 -.00000100  00000+0  22456-4 0  9995
2 37742  51.9895 342.0653 0000288  88.6229 351.9711 12.62262940564161
GLOBALSTAR M081 [+]     
1 37743U 11033E   23269.51487885 -.00000079  00000+0  13737-3 0  9990
2 37743  51.9985 344.1273 0000446  63.5496  39.7138 12.62264556564324
GLOBALSTAR M089 [+]     
1 37744U 11033F   23269.39611531 -.00000063  00000+0  22859-3 0  9992
2 37744  51.9930 298.8366 0000642  88.8137  14.0280 12.62267318565158
GLOBALSTAR M084 [+]     
1 38040U 11080A   23270.04380376 -.00000081  00000+0  12686-3 0  9995
2 38040  51.9996 163.8178 0000927  79.0238  27.7764 12.62266292543493
GLOBALSTAR M080 [+]     
1 38041U 11080B   23269.76398038 -.00000092  00000+0  65881-4 0  9995
2 38041  52.0050 166.0546 0001093  70.3082 324.6945 12.62264666543300
GLOBALSTAR M082 [+]     
1 38042U 11080C   23270.04303722 -.00000074  00000+0  16747-3 0  9991
2 38042  52.0057 120.5838 0000198  96.1691  68.0067 12.62271195544214
GLOBALSTAR M092 [+]     
1 38043U 11080D   23269.04792045 -.00000108  00000+0 -22010-4 0  9990
2 38043  52.0076 213.9548 0000737  90.2303 350.0757 12.62272168542371
GLOBALSTAR M090 [+]     
1 38044U 11080E   23270.07116715 -.00000075  00000+0  15875-3 0  9992
2 38044  51.9866 115.1173 0000561  66.0867 106.1890 12.62277936544205
GLOBALSTAR M086 [+]     
1 38045U 11080F   23269.76031847 -.00000075  00000+0  15964-3 0  9998
2 38045  51.9880 116.5651 0001409  36.6231  42.9468 12.62262815544071
GLOBALSTAR M097 [+]     
1 39072U 13005A   23269.61120160 -.00000106  00000+0 -10395-4 0  9999
2 39072  52.0069  30.9266 0000428  77.3852 282.7063 12.62270715491305
GLOBALSTAR M093 [+]     
1 39073U 13005B   23269.50544268 -.00000104  00000+0 -69045-7 0  9994
2 39073  51.9835  25.5593 0000404  47.0083 313.0818 12.62266760491246
GLOBALSTAR M094 [+]     
1 39074U 13005C   23270.05979098 -.00000072  00000+0  17475-3 0  9999
2 39074  51.9956 297.6281 0000333  59.7427 300.3472 12.62267913492944
GLOBALSTAR M096 [+]     
1 39075U 13005D   23269.99366435 -.00000089  00000+0  81872-4 0  9997
2 39075  52.0100 345.8504 0000358  73.1671 286.9235 12.62264074492187
GLOBALSTAR M078 [+]     
1 39076U 13005E   23269.80865097 -.00000093  00000+0  61851-4 0  9996
2 39076  51.9869  71.7736 0000718 178.9706 181.1162 12.62261532490643
GLOBALSTAR M095 [+]     
1 39077U 13005F   23269.75631284 -.00000098  00000+0  30107-4 0  9995
2 39077  51.9796  69.4454 0000157 135.2268 224.8611 12.62269033490288
GLOBALSTAR M087 [+]     
1 52888U 22064A   23269.81213269 -.00000105  00000+0  45165-4 0  9990
2 52888  51.9765  50.2272 0010058  56.7054 303.4809 13.37553168 62147
